1 45233U 20012BH  22365.56368626  .00005502  00000-0  38794-3 0  9998
2 45233  53.0529 212.5837 0001348  78.2177 281.8963 15.06404886159643
1 45233U 20012BH  23001.35985169 -.00000375  00000-0 -63083-5 0  9996
2 45233  53.0523 209.0096 0001519  77.4373 282.6786 15.06393760158834
1 45233U 20012BH  23001.55889382 -.00000588  00000-0 -20610-4 0  9992
2 45233  53.0521 208.1159 0001556  78.0754 282.0409 15.06392916159797
1 45233U 20012BH  23001.82428385 -.00000445  00000-0 -11004-4 0  9993
2 45233  53.0526 206.9245 0001498  78.7750 281.3407 15.06391744159835
1 45233U 20012BH  23002.42140556 -.00000061  00000-0  14786-4 0  9994
2 45233  53.0526 204.2439 0001566  78.1459 281.9706 15.06395517158993
1 45233U 20012BH  23002.55409871 -.00000642  00000-0 -24180-4 0  9991
2 45233  53.0533 203.6483 0001581  78.2802 281.8364 15.06400482159946
1 45233U 20012BH  23002.81948515 -.00000697  00000-0 -27911-4 0  9998
2 45233  53.0533 202.4568 0001582  78.2668 281.8499 15.06400643159980
1 45233U 20012BH  23003.54930162  .00001715  00000-0  13400-3 0  9995
2 45233  53.0535 199.1803 0001582  79.4233 280.6934 15.06395114160098
1 45233U 20012BH  23003.54930162  .00001715  00000-0  13400-3 0  9995
2 45233  53.0535 199.1803 0001582  79.4233 280.6934 15.06395114159164
1 45233U 20012BH  23003.94738210  .00001681  00000-0  13172-3 0  9997
2 45233  53.0535 197.3931 0001588  79.2838 280.8329 15.06397593160155
1 45233U 20012BH  23004.80988329  .00002187  00000-0  16566-3 0  9993
2 45233  53.0535 193.5211 0001596  79.5466 280.5702 15.06407222159356
1 45233U 20012BH  23004.87622942  .00002234  00000-0  16880-3 0  9998
2 45233  53.0535 193.2233 0001597  79.5505 280.5664 15.06408031160293
1 45233U 20012BH  23005.34065340  .00002063  00000-0  15728-3 0  9994
2 45233  53.0534 191.1387 0001616  80.5468 279.5704 15.06411185160366
1 45233U 20012BH  23005.80508713  .00000467  00000-0  50244-4 0  9990
2 45233  53.0535 189.0535 0001562  79.3118 280.8047 15.06402045160434
1 45233U 20012BH  23006.26951289  .00000016  00000-0  19939-4 0  9997
2 45233  53.0534 186.9688 0001518  78.9011 281.2148 15.06403087159573
1 45233U 20012BH  23006.60125638 -.00001849  00000-0 -10527-3 0  9996
2 45233  53.0534 185.4789 0001538  75.9993 284.1167 15.06393125159627
1 45233U 20012BH  23006.86664202 -.00001762  00000-0 -99432-4 0  9996
2 45233  53.0533 184.2881 0001522  81.7513 278.3649 15.06395893160594
1 45233U 20012BH  23007.19837483 -.00000999  00000-0 -48178-4 0  9998
2 45233  53.0534 182.7985 0001551  78.1661 281.9501 15.06396826160649
1 45233U 20012BH  23007.46375984 -.00001001  00000-0 -48346-4 0  9993
2 45233  53.0533 181.6071 0001449  82.7330 277.3823 15.06399386159752
1 45233U 20012BH  23007.72914481 -.00000433  00000-0 -10148-4 0  9990
2 45233  53.0534 180.4157 0001502  78.8118 281.3040 15.06401505160727
1 45233U 20012BH  23008.19357278  .00000436  00000-0  48154-4 0  9996
2 45233  53.0535 178.3310 0001464  79.0302 281.0852 15.06399783160799
1 45233U 20012BH  23008.59165115  .00002334  00000-0  17554-3 0  9995
2 45233  53.0537 176.5437 0001387  78.4613 281.6531 15.06398175160854
1 45233U 20012BH  23008.59165115  .00002334  00000-0  17554-3 0  9995
2 45233  53.0537 176.5437 0001387  78.4613 281.6531 15.06398175159920
1 45233U 20012BH  23009.45416015  .00001130  00000-0  94744-4 0  9999
2 45233  53.0537 172.6719 0001390  78.4202 281.6943 15.06400771160989
1 45233U 20012BH  23009.71954523  .00001367  00000-0  11061-3 0  9991
2 45233  53.0536 171.4802 0001365  79.4836 280.6306 15.06402945161027
1 45233U 20012BH  23009.71954523  .00001367  00000-0  11061-3 0  9991
2 45233  53.0536 171.4802 0001365  79.4836 280.6306 15.06402945160093
1 45233U 20012BH  23010.44935820  .00000083  00000-0  24463-4 0  9997
2 45233  53.0532 168.2047 0001299  77.0577 283.0556 15.06405636161136
1 45233U 20012BH  23010.78110067 -.00001303  00000-0 -68613-4 0  9995
2 45233  53.0534 166.7157 0001276  74.4099 285.7031 15.06394762161187
1 45233U 20012BH  23010.78110067 -.00001303  00000-0 -68613-4 0  9995
2 45233  53.0534 166.7157 0001276  74.4099 285.7031 15.06394762160254
1 45233U 20012BH  23011.84263733  .00000515  00000-0  53420-4 0  9994
2 45233  53.0548 161.9488 0001200  67.6365 292.4751 15.06407476161342
1 45233U 20012BH  23012.10805324 -.00001072  00000-0 -52980-4 0  9993
2 45233  53.0485 160.7541 0004616  75.6905 284.4596 15.06386151160457
1 45233U 20012BH  23012.77152384 -.00001064  00000-0 -52581-4 0  9995
2 45233  53.0526 157.7803 0001246  79.0621 281.0508 15.06375241161487
1 45233U 20012BH  23012.77152384 -.00001064  00000-0 -52581-4 0  9995
2 45233  53.0526 157.7803 0001246  79.0621 281.0508 15.06375241160554
1 45233U 20012BH  23013.10325790 -.00000067  00000-0  14430-4 0  9998
2 45233  53.0522 156.2915 0001482  80.7457 279.3699 15.06381314161534
1 45233U 20012BH  23013.10325790 -.00000067  00000-0  14430-4 0  9998
2 45233  53.0522 156.2915 0001482  80.7457 279.3699 15.06381314160601
1 45233U 20012BH  23013.76672117 -.00000152  00000-0  86769-5 0  9998
2 45233  53.0531 153.3126 0001377  82.5434 277.5711 15.06396028161638
1 45233U 20012BH  23013.76672117 -.00000152  00000-0  86769-5 0  9998
2 45233  53.0531 153.3126 0001377  82.5434 277.5711 15.06396028160705
1 45233U 20012BH  23014.09844902  .00000473  00000-0  50667-4 0  9990
2 45233  53.0512 151.8243 0001541  83.1833 276.9331 15.06406530160756
1 45233U 20012BH  23014.62921621  .00011530  00000-0  79106-3 0  9997
2 45233  53.0477 149.4429 0002170  80.9474 279.1760 15.06427417160837
1 45233U 20012BH  23015.09365084  .00002417  00000-0  18105-3 0  9990
2 45233  53.0533 147.3554 0001087  97.6948 262.4164 15.06404476160904
1 45233U 20012BH  23015.55808533 -.00005102  00000-0 -32393-3 0  9993
2 45233  53.0531 145.2712 0001485  98.2168 261.8989 15.06388246161903
1 45233U 20012BH  23015.55808533 -.00005102  00000-0 -32393-3 0  9993
2 45233  53.0531 145.2712 0001485  98.2168 261.8989 15.06388246160979
1 45233U 20012BH  23015.75712309 -.00003023  00000-0 -18418-3 0  9992
2 45233  53.0528 144.3752 0001567 111.3695 248.7461 15.06393642161934
1 45233U 20012BH  23015.75712309 -.00003023  00000-0 -18418-3 0  9992
2 45233  53.0528 144.3752 0001567 111.3695 248.7461 15.06393642161002
1 45233U 20012BH  23016.48695190  .00011979  00000-0  82199-3 0  9995
2 45233  53.0528 141.0996 0001871 110.7460 249.3730 15.06387970161112
1 45233U 20012BH  23016.61964692  .00014705  00000-0  10042-2 0  9993
2 45233  53.0528 140.5053 0001465  87.6616 272.4541 15.06393672162062
1 45233U 20012BH  23016.75234006  .00024788  00000-0  16769-2 0  9991
2 45233  53.0527 139.9097 0001473  81.2902 278.8254 15.06405837162088
1 45233U 20012BH  23016.75234006  .00024788  00000-0  16769-2 0  9991
2 45233  53.0527 139.9097 0001473  81.2902 278.8254 15.06405837161155
1 45233U 20012BH  23017.34946905  .00014974  00000-0  10222-2 0  9999
2 45233  53.0531 137.2288 0001717 101.4064 258.7118 15.06393800161240
1 45233U 20012BH  23017.61485709  .00024796  00000-0  16776-2 0  9992
2 45233  53.0532 136.0383 0001345  88.7298 271.3845 15.06402730162216
1 45233U 20012BH  23017.68120354  .00026651  00000-0  18010-2 0  9996
2 45233  53.0531 135.7406 0001442  90.1004 270.0150 15.06406501162223
1 45233U 20012BH  23018.34467006  .00013153  00000-0  90003-3 0  9994
2 45233  53.0535 132.7621 0001505  94.6332 265.4829 15.06408751161393
1 45233U 20012BH  23018.61005149  .00016609  00000-0  11305-2 0  9996
2 45233  53.0534 131.5713 0001669  94.7093 265.4087 15.06425983162367
1 45233U 20012BH  23018.61005149  .00016609  00000-0  11305-2 0  9996
2 45233  53.0534 131.5713 0001669  94.7093 265.4087 15.06425983161434
1 45233U 20012BH  23019.00812652  .00011117  00000-0  76350-3 0  9996
2 45233  53.0527 129.7860 0000368 129.1017 231.0005 15.06425759161498
1 45233U 20012BH  23019.33986683 -.00004101  00000-0 -25657-3 0  9999
2 45233  53.0550 128.2957 0001451 105.8091 254.3058 15.06397199162473
1 45233U 20012BH  23019.33986683 -.00004101  00000-0 -25657-3 0  9999
2 45233  53.0550 128.2957 0001451 105.8091 254.3058 15.06397199161540
1 45233U 20012BH  23020.00333468  .00008660  00000-0  59949-3 0  9995
2 45233  53.0537 125.3158 0001349  89.9220 270.1924 15.06405046161648
1 45233U 20012BH  23020.46776424  .00001164  00000-0  97034-4 0  9998
2 45233  53.0549 123.2309 0001721  83.1133 277.0052 15.06402938162645
1 45233U 20012BH  23020.46776424  .00001164  00000-0  97034-4 0  9998
2 45233  53.0549 123.2309 0001721  83.1133 277.0052 15.06402938161712
1 45233U 20012BH  23021.46296853  .00001676  00000-0  13139-3 0  9993
2 45233  53.0549 118.7665 0001498  89.3472 270.7689 15.06397862161862
1 45233U 20012BH  23022.52451988  .00002432  00000-0  18207-3 0  9995
2 45233  53.0550 113.9993 0001065  81.3325 278.7785 15.06399004162028
1 45233U 20012BH  23022.65721038  .00004364  00000-0  31161-3 0  9995
2 45233  53.0542 113.4026 0001217  79.9591 280.1535 15.06407343162046
1 45233U 20012BH  23023.51972342  .00004527  00000-0  32255-3 0  9993
2 45233  53.0521 109.5316 0001450  74.7356 285.3794 15.06403485162173
1 45233U 20012BH  23024.24954074  .00000933  00000-0  81557-4 0  9993
2 45233  53.0531 106.2525 0001353  77.4378 282.6762 15.06397216162287
1 45233U 20012BH  23024.64761980  .00010570  00000-0  72718-3 0  9995
2 45233  53.0540 104.4667 0001470  63.6637 296.4503 15.06411523162340
1 45233U 20012BH  23025.17840000  .00008773  00000-0  60718-3 0  9994
2 45233  53.0524 102.0845 0001932  70.3724 289.7473 15.06396950162425
1 45233U 20012BH  23025.57647889  .00008324  00000-0  57702-3 0  9999
2 45233  53.0533 100.2973 0001318  78.3438 281.7699 15.06403483163417
1 45233U 20012BH  23026.17360162  .00006013  00000-0  42218-3 0  9991
2 45233  53.0533  97.6173 0001279  83.2514 276.8621 15.06401614162574
1 45233U 20012BH  23026.50533261  .00009988  00000-0  68820-3 0  9991
2 45233  53.0534  96.1276 0001309  82.0894 278.0244 15.06413220163555
1 45233U 20012BH  23027.16880149  .00002111  00000-0  16055-3 0  9998
2 45233  53.0529  93.1484 0001225  92.4766 267.6363 15.06401422162722
1 45233U 20012BH  23027.36784224  .00000890  00000-0  78662-4 0  9992
2 45233  53.0529  92.2550 0001523  91.7194 268.3970 15.06399309163682
1 45233U 20012BH  23028.16400828  .00001265  00000-0  10381-3 0  9996
2 45233  53.0550  88.6829 0001461  83.8314 276.2841 15.06395410162875
1 45233U 20012BH  23028.56208764  .00000674  00000-0  64129-4 0  9998
2 45233  53.0542  86.8937 0001281  81.6999 278.4135 15.06401112163868
1 45233U 20012BH  23029.42459640  .00002331  00000-0  17531-3 0  9991
2 45233  53.0543  83.0221 0001409  91.1504 268.9646 15.06401882163993
1 45233U 20012BH  23029.42459640  .00002331  00000-0  17531-3 0  9991
2 45233  53.0543  83.0221 0001409  91.1504 268.9646 15.06401882163061
1 45233U 20012BH  23030.15441643  .00000797  00000-0  72440-4 0  9992
2 45233  53.0550  79.7479 0001506  90.3281 269.7880 15.06394108163170
1 45233U 20012BH  23030.55249618  .00001214  00000-0  10036-3 0  9991
2 45233  53.0554  77.9590 0001377  95.8343 264.2803 15.06396910164161
1 45233U 20012BH  23030.81788562 -.00000185  00000-0  65013-5 0  9990
2 45233  53.0549  76.7676 0001320 100.1770 259.9367 15.06396410164205
1 45233U 20012BH  23031.54769488  .00000917  00000-0  80470-4 0  9992
2 45233  53.0550  73.4908 0001358  93.5874 266.5271 15.06404385163387
